start=new Date('2021-10-19T00:00:00.000Z').valueOf();
sats=[{"ELEMENT_SET_NO":"999","TIME_SYSTEM":"UTC","ARG_OF_PERICENTER":"83.8501","MEAN_ANOMALY":"276.2693","CLASSIFICATION_TYPE":"U","NORAD_CAT_ID":"48317","APOAPSIS":"548.483","TLE_LINE2":"2 48317  53.0593  87.9013 0001796  83.8501 276.2693 15.06391633 26556","TLE_LINE1":"1 48317U 21036AT  21291.66002920  .00000768  00000-0  70491-4 0  9991","OBJECT_ID":"2021-036AT","REV_AT_EPOCH":"2655","INCLINATION":"53.0593","DECAY_DATE":null,"RCS_SIZE":"LARGE","CENTER_NAME":"EARTH","LAUNCH_DATE":"2021-04-29","RA_OF_ASC_NODE":"87.9013","PERIAPSIS":"545.995","MEAN_ELEMENT_THEORY":"SGP4","PERIOD":"95.593","SEMIMAJOR_AXIS":"6925.374","COUNTRY_CODE":"US","EPOCH":"2021-10-18T15:50:26.522880","BSTAR":"0.00007049100000","OBJECT_TYPE":"PAYLOAD","OBJECT_NAME":"STARLINK-2513","EPHEMERIS_TYPE":"0","REF_FRAME":"TEME","MEAN_MOTION":"15.06391633","FILE":"3170620","SITE":"AFETR","MEAN_MOTION_DOT":"0.00000768","MEAN_MOTION_DDOT":"0.0000000000000","ECCENTRICITY":"0.00017960","GP_ID":"187536265"},{"BSTAR":"0.00010151000000","EPOCH":"2021-10-18T15:38:29.544576","COUNTRY_CODE":"US","PERIOD":"95.593","SEMIMAJOR_AXIS":"6925.366","MEAN_ELEMENT_THEORY":"SGP4","PERIAPSIS":"546.082","RA_OF_ASC_NODE":"97.9305","LAUNCH_DATE":"2021-04-29","CENTER_NAME":"EARTH","GP_ID":"187536515","ECCENTRICITY":"0.00016590","MEAN_MOTION_DOT":"0.00001231","MEAN_MOTION_DDOT":"0.0000000000000","SITE":"AFETR","FILE":"3170620","MEAN_MOTION":"15.06394285","REF_FRAME":"TEME","EPHEMERIS_TYPE":"0","OBJECT_NAME":"STARLINK-2509","OBJECT_TYPE":"PAYLOAD","NORAD_CAT_ID":"48318","CLASSIFICATION_TYPE":"U","MEAN_ANOMALY":"276.7588","ARG_OF_PERICENTER":"83.3589","ELEMENT_SET_NO":"999","TIME_SYSTEM":"UTC","RCS_SIZE":"LARGE","DECAY_DATE":null,"INCLINATION":"53.0532","OBJECT_ID":"2021-036AU","REV_AT_EPOCH":"2641","TLE_LINE1":"1 48318U 21036AU  21291.65173084  .00001231  00000-0  10151-3 0  9993","TLE_LINE2":"2 48318  53.0532  97.9305 0001659  83.3589 276.7588 15.06394285 26413","APOAPSIS":"548.380"},{"SEMIMAJOR_AXIS":"6925.376","PERIOD":"95.593","BSTAR":"-0.00002364800000","EPOCH":"2021-10-18T15:33:09.493056","COUNTRY_CODE":"US","LAUNCH_DATE":"2021-04-29","CENTER_NAME":"EARTH","PERIAPSIS":"545.958","RA_OF_ASC_NODE":"97.9518","MEAN_ELEMENT_THEORY":"SGP4","FILE":"3170620","SITE":"AFETR","MEAN_MOTION_DDOT":"0.0000000000000","MEAN_MOTION_DOT":"-0.00000634","GP_ID":"187537766","ECCENTRICITY":"0.00018530","OBJECT_TYPE":"PAYLOAD","OBJECT_NAME":"STARLINK-2512","EPHEMERIS_TYPE":"0","REF_FRAME":"TEME","MEAN_MOTION":"15.06391112","CLASSIFICATION_TYPE":"U","NORAD_CAT_ID":"48319","ELEMENT_SET_NO":"999","TIME_SYSTEM":"UTC","MEAN_ANOMALY":"281.7758","ARG_OF_PERICENTER":"78.3439","REV_AT_EPOCH":"2641","OBJECT_ID":"2021-036AV","DECAY_DATE":null,"INCLINATION":"53.0534","RCS_SIZE":"LARGE","APOAPSIS":"548.524","TLE_LINE1":"1 48319U 21036AV  21291.64802654 -.00000634  00000-0 -23648-4 0  9999","TLE_LINE2":"2 48319  53.0534  97.9518 0001853  78.3439 281.7758 15.06391112 26417"},{"ARG_OF_PERICENTER":"81.0689","MEAN_ANOMALY":"279.0494","ELEMENT_SET_NO":"999","TIME_SYSTEM":"UTC","NORAD_CAT_ID":"48320","CLASSIFICATION_TYPE":"U","TLE_LINE2":"2 48320  53.0539  97.9567 0001708  81.0689 279.0494 15.06398493 26411","TLE_LINE1":"1 48320U 21036AW  21291.64434616  .00001018  00000-0  87243-4 0  9996","APOAPSIS":"548.401","RCS_SIZE":"LARGE","INCLINATION":"53.0539","DECAY_DATE":null,"OBJECT_ID":"2021-036AW","REV_AT_EPOCH":"2641","MEAN_ELEMENT_THEORY":"SGP4","PERIAPSIS":"546.035","RA_OF_ASC_NODE":"97.9567","CENTER_NAME":"EARTH","LAUNCH_DATE":"2021-04-29","COUNTRY_CODE":"US","EPOCH":"2021-10-18T15:27:51.508224","BSTAR":"0.00008724300000","PERIOD":"95.592","SEMIMAJOR_AXIS":"6925.353","MEAN_MOTION":"15.06398493","REF_FRAME":"TEME","EPHEMERIS_TYPE":"0","OBJECT_NAME":"STARLINK-2029","OBJECT_TYPE":"PAYLOAD","ECCENTRICITY":"0.00017080","GP_ID":"187538017","MEAN_MOTION_DOT":"0.00001018","MEAN_MOTION_DDOT":"0.0000000000000","SITE":"AFETR","FILE":"3170620"},{"CENTER_NAME":"EARTH","LAUNCH_DATE":"2021-04-29","MEAN_ELEMENT_THEORY":"SGP4","RA_OF_ASC_NODE":"97.9737","PERIAPSIS":"546.106","PERIOD":"95.592","SEMIMAJOR_AXIS":"6925.348","COUNTRY_CODE":"US","BSTAR":"0.00009472100000","EPOCH":"2021-10-18T15:22:32.168640","OBJECT_NAME":"STARLINK-2457","OBJECT_TYPE":"PAYLOAD","MEAN_MOTION":"15.06400232","EPHEMERIS_TYPE":"0","REF_FRAME":"TEME","SITE":"AFETR","FILE":"3170620","GP_ID":"187536765","ECCENTRICITY":"0.00015980","MEAN_MOTION_DDOT":"0.0000000000000","MEAN_MOTION_DOT":"0.00001130","ELEMENT_SET_NO":"999","TIME_SYSTEM":"UTC","MEAN_ANOMALY":"276.5897","ARG_OF_PERICENTER":"83.5274","CLASSIFICATION_TYPE":"U","NORAD_CAT_ID":"48321","APOAPSIS":"548.320","TLE_LINE2":"2 48321  53.0546  97.9737 0001598  83.5274 276.5897 15.06400232 26417","TLE_LINE1":"1 48321U 21036AX  21291.64065010  .00001130  00000-0  94721-4 0  9999","REV_AT_EPOCH":"2641","OBJECT_ID":"2021-036AX","RCS_SIZE":"LARGE","INCLINATION":"53.0546","DECAY_DATE":null},{"PERIOD":"95.592","SEMIMAJOR_AXIS":"6925.332","COUNTRY_CODE":"US","EPOCH":"2021-10-18T15:17:13.478784","BSTAR":"0.00008588900000","CENTER_NAME":"EARTH","LAUNCH_DATE":"2021-04-29","PERIAPSIS":"545.810","RA_OF_ASC_NODE":"97.9874","MEAN_ELEMENT_THEORY":"SGP4","FILE":"3170620","SITE":"AFETR","MEAN_MOTION_DDOT":"0.0000000000000","MEAN_MOTION_DOT":"0.00000998","GP_ID":"187537015","ECCENTRICITY":"0.00020020","OBJECT_TYPE":"PAYLOAD","OBJECT_NAME":"STARLINK-2477","REF_FRAME":"TEME","EPHEMERIS_TYPE":"0","MEAN_MOTION":"15.06405486","CLASSIFICATION_TYPE":"U","NORAD_CAT_ID":"48322","ELEMENT_SET_NO":"999","TIME_SYSTEM":"UTC","ARG_OF_PERICENTER":"83.6302","MEAN_ANOMALY":"276.4915","OBJECT_ID":"2021-036AY","REV_AT_EPOCH":"2641","INCLINATION":"53.0546","DECAY_DATE":null,"RCS_SIZE":"LARGE","APOAPSIS":"548.583","TLE_LINE2":"2 48322  53.0546  97.9874 0002002  83.6302 276.4915 15.06405486 26410","TLE_LINE1":"1 48322U 21036AY  21291.63696156  .00000998  00000-0  85889-4 0  9996"},{"NORAD_CAT_ID":"48323","CLASSIFICATION_TYPE":"U","ARG_OF_PERICENTER":"87.3821","MEAN_ANOMALY":"272.7363","TIME_SYSTEM":"UTC","ELEMENT_SET_NO":"999","RCS_SIZE":"LARGE","DECAY_DATE":null,"INCLINATION":"53.0556","REV_AT_EPOCH":"2641","OBJECT_ID":"2021-036AZ","TLE_LINE1":"1 48323U 21036AZ  21291.63330152  .00000891  00000-0  78729-4 0  9995","TLE_LINE2":"2 48323  53.0556  98.0133 0001700  87.3821 272.7363 15.06394051 26414","APOAPSIS":"548.409","BSTAR":"0.00007872900000","EPOCH":"2021-10-18T15:11:57.251328","COUNTRY_CODE":"US","PERIOD":"95.593","SEMIMAJOR_AXIS":"6925.367","MEAN_ELEMENT_THEORY":"SGP4","RA_OF_ASC_NODE":"98.0133","PERIAPSIS":"546.054","LAUNCH_DATE":"2021-04-29","CENTER_NAME":"EARTH","GP_ID":"187537267","ECCENTRICITY":"0.00017000","MEAN_MOTION_DOT":"0.00000891","MEAN_MOTION_DDOT":"0.0000000000000","SITE":"AFETR","FILE":"3170620","MEAN_MOTION":"15.06394051","EPHEMERIS_TYPE":"0","REF_FRAME":"TEME","OBJECT_NAME":"STARLINK-2515","OBJECT_TYPE":"PAYLOAD"},{"EPHEMERIS_TYPE":"0","REF_FRAME":"TEME","MEAN_MOTION":"15.06398463","OBJECT_TYPE":"PAYLOAD","OBJECT_NAME":"STARLINK-2527","MEAN_MOTION_DDOT":"0.0000000000000","MEAN_MOTION_DOT":"0.00000113","GP_ID":"187537518","ECCENTRICITY":"0.00014540","FILE":"3170620","SITE":"AFETR","PERIAPSIS":"546.211","RA_OF_ASC_NODE":"98.0417","MEAN_ELEMENT_THEORY":"SGP4","LAUNCH_DATE":"2021-04-29","CENTER_NAME":"EARTH","BSTAR":"0.00002651400000","EPOCH":"2021-10-18T15:06:36.894816","COUNTRY_CODE":"US","PERIOD":"95.592","SEMIMAJOR_AXIS":"6925.353","TLE_LINE1":"1 48324U 21036BA  21291.62959369  .00000113  00000-0  26514-4 0  9994","TLE_LINE2":"2 48324  53.0569  98.0417 0001454  83.4620 276.6534 15.06398463 26407","APOAPSIS":"548.225","DECAY_DATE":null,"INCLINATION":"53.0569","RCS_SIZE":"LARGE","OBJECT_ID":"2021-036BA","REV_AT_EPOCH":"2640","ARG_OF_PERICENTER":"83.4620","MEAN_ANOMALY":"276.6534","ELEMENT_SET_NO":"999","TIME_SYSTEM":"UTC","NORAD_CAT_ID":"48324","CLASSIFICATION_TYPE":"U"},{"CLASSIFICATION_TYPE":"U","NORAD_CAT_ID":"48325","TIME_SYSTEM":"UTC","ELEMENT_SET_NO":"999","ARG_OF_PERICENTER":"82.8593","MEAN_ANOMALY":"277.2621","REV_AT_EPOCH":"2641","OBJECT_ID":"2021-036BB","RCS_SIZE":"LARGE","INCLINATION":"53.0560","DECAY_DATE":null,"APOAPSIS":"548.610","TLE_LINE2":"2 48325  53.0560  98.0513 0001981  82.8593 277.2621 15.06391952 26414","TLE_LINE1":"1 48325U 21036BB  21291.62590945 -.00000606  00000-0 -21776-4 0  9990","SEMIMAJOR_AXIS":"6925.373","PERIOD":"95.593","COUNTRY_CODE":"US","BSTAR":"-0.00002177600000","EPOCH":"2021-10-18T15:01:18.576480","CENTER_NAME":"EARTH","LAUNCH_DATE":"2021-04-29","MEAN_ELEMENT_THEORY":"SGP4","RA_OF_ASC_NODE":"98.0513","PERIAPSIS":"545.866","SITE":"AFETR","FILE":"3170620","GP_ID":"187536266","ECCENTRICITY":"0.00019810","MEAN_MOTION_DOT":"-0.00000606","MEAN_MOTION_DDOT":"0.0000000000000","OBJECT_NAME":"STARLINK-2495","OBJECT_TYPE":"PAYLOAD","MEAN_MOTION":"15.06391952","REF_FRAME":"TEME","EPHEMERIS_TYPE":"0"},{"TLE_LINE1":"1 48326U 21036BC  21291.62225289  .00000887  00000-0  78456-4 0  9993","TLE_LINE2":"2 48326  53.0549  98.0538 0001936  75.2207 284.8996 15.06389626 26411","APOAPSIS":"548.586","RCS_SIZE":"LARGE","DECAY_DATE":null,"INCLINATION":"53.0549","OBJECT_ID":"2021-036BC","REV_AT_EPOCH":"2641","MEAN_ANOMALY":"284.8996","ARG_OF_PERICENTER":"75.2207","ELEMENT_SET_NO":"999","TIME_SYSTEM":"UTC","NORAD_CAT_ID":"48326","CLASSIFICATION_TYPE":"U","MEAN_MOTION":"15.06389626","REF_FRAME":"TEME","EPHEMERIS_TYPE":"0","OBJECT_NAME":"STARLINK-2498","OBJECT_TYPE":"PAYLOAD","ECCENTRICITY":"0.00019360","GP_ID":"187536516","MEAN_MOTION_DOT":"0.00000887","MEAN_MOTION_DDOT":"0.0000000000000","SITE":"AFETR","FILE":"3170620","MEAN_ELEMENT_THEORY":"SGP4","PERIAPSIS":"545.905","RA_OF_ASC_NODE":"98.0538","LAUNCH_DATE":"2021-04-29","CENTER_NAME":"EARTH","BSTAR":"0.00007845600000","EPOCH":"2021-10-18T14:56:02.649696","COUNTRY_CODE":"US","SEMIMAJOR_AXIS":"6925.380","PERIOD":"95.593"}];
